[
    {
        "Altitude(m)": 707139.7670431931,
        "Argument of Periapsis(deg)": 0.0011390121186627068,
        "Eccentricity": 0.0,
        "Inclination(deg)": 45.0,
        "Latitude(deg)": 44.398540282793505,
        "Longitude(deg)": -96.94694051060712,
        "Mean Anomaly(deg)": 99.33512166474804,
        "RAAN(deg)": 259.99892480585413,
        "Satellite Name": "Constellation 1 1150",
        "Satellite Number": 1150,
        "Semi-Major Axis(m)": 7083131.272910544,
        "Time(s)": 19
    },
    {
        "Altitude(m)": 707137.5696459449,
        "Argument of Periapsis(deg)": 0.0011989601249081123,
        "Eccentricity": 0.0,
        "Inclination(deg)": 45.0,
        "Latitude(deg)": 44.38875809838234,
        "Longitude(deg)": -96.8673795236689,
        "Mean Anomaly(deg)": 99.39582280499803,
        "RAAN(deg)": 259.9988682166886,
        "Satellite Name": "Constellation 1 1150",
        "Satellite Number": 1150,
        "Semi-Major Axis(m)": 7083131.272910544,
        "Time(s)": 20
    },
    {
        "Altitude(m)": 707135.3586219595,
        "Argument of Periapsis(deg)": 0.001258908131153518,
        "Eccentricity": 0.0,
        "Inclination(deg)": 45.0,
        "Latitude(deg)": 44.37891465413717,
        "Longitude(deg)": -96.78784647099297,
        "Mean Anomaly(deg)": 99.45652394524787,
        "RAAN(deg)": 259.998811627523,
        "Satellite Name": "Constellation 1 1150",
        "Satellite Number": 1150,
        "Semi-Major Axis(m)": 7083131.272910544,
        "Time(s)": 21
    },
    {
        "Altitude(m)": 707133.1339842567,
        "Argument of Periapsis(deg)": 0.0013188561373989236,
        "Eccentricity": 0.0,
        "Inclination(deg)": 45.0,
        "Latitude(deg)": 44.3690099912237,
        "Longitude(deg)": -96.70834167590264,
        "Mean Anomaly(deg)": 99.5172250854978,
        "RAAN(deg)": 259.9987550383575,
        "Satellite Name": "Constellation 1 1150",
        "Satellite Number": 1150,
        "Semi-Major Axis(m)": 7083131.272910544,
        "Time(s)": 22
    },
    {
        "Altitude(m)": 707130.8957459318,
        "Argument of Periapsis(deg)": 0.0013788041436443293,
        "Eccentricity": 0.0,
        "Inclination(deg)": 45.0,
        "Latitude(deg)": 44.3590441510285,
        "Longitude(deg)": -96.62886495697389,
        "Mean Anomaly(deg)": 99.57792622574763,
        "RAAN(deg)": 259.9986984491919,
        "Satellite Name": "Constellation 1 1150",
        "Satellite Number": 1150,
        "Semi-Major Axis(m)": 7083131.272910544,
        "Time(s)": 23
    },
    {
        "Altitude(m)": 707128.6439201755,
        "Argument of Periapsis(deg)": 0.001438752149889735,
        "Eccentricity": 0.0,
        "Inclination(deg)": 45.0,
        "Latitude(deg)": 44.349017175167916,
        "Longitude(deg)": -96.54941663669244,
        "Mean Anomaly(deg)": 99.63862736599758,
        "RAAN(deg)": 259.99864186002634,
        "Satellite Name": "Constellation 1 1150",
        "Satellite Number": 1150,
        "Semi-Major Axis(m)": 7083131.272910544,
        "Time(s)": 24
    },
    {
        "Altitude(m)": 707126.3785202325,
        "Argument of Periapsis(deg)": 0.0014987001561351404,
        "Eccentricity": 0.0,
        "Inclination(deg)": 45.0,
        "Latitude(deg)": 44.338929105449466,
        "Longitude(deg)": -96.46999686875039,
        "Mean Anomaly(deg)": 99.69932850624745,
        "RAAN(deg)": 259.99858527086076,
        "Satellite Name": "Constellation 1 1150",
        "Satellite Number": 1150,
        "Semi-Major Axis(m)": 7083131.272910544,
        "Time(s)": 25
    },
    {
        "Altitude(m)": 707124.099559456,
        "Argument of Periapsis(deg)": 0.001558648162380546,
        "Eccentricity": 0.0,
        "Inclination(deg)": 45.0,
        "Latitude(deg)": 44.32877998392729,
        "Longitude(deg)": -96.39060580661086,
        "Mean Anomaly(deg)": 99.76002964649734,
        "RAAN(deg)": 259.9985286816952,
        "Satellite Name": "Constellation 1 1150",
        "Satellite Number": 1150,
        "Semi-Major Axis(m)": 7083131.272910544,
        "Time(s)": 26
    },
    {
        "Altitude(m)": 707121.8070512643,
        "Argument of Periapsis(deg)": 0.0016185961686259519,
        "Eccentricity": 0.0,
        "Inclination(deg)": 45.0,
        "Latitude(deg)": 44.31856985286409,
        "Longitude(deg)": -96.31124360319471,
        "Mean Anomaly(deg)": 99.82073078674723,
        "RAAN(deg)": 259.99847209252965,
        "Satellite Name": "Constellation 1 1150",
        "Satellite Number": 1150,
        "Semi-Major Axis(m)": 7083131.272910544,
        "Time(s)": 27
    },
    {
        "Altitude(m)": 707119.5010091609,
        "Argument of Periapsis(deg)": 0.0016785441748713573,
        "Eccentricity": 0.0,
        "Inclination(deg)": 45.0,
        "Latitude(deg)": 44.308298754739496,
        "Longitude(deg)": -96.23191041095535,
        "Mean Anomaly(deg)": 99.88143192699717,
        "RAAN(deg)": 259.9984155033641,
        "Satellite Name": "Constellation 1 1150",
        "Satellite Number": 1150,
        "Semi-Major Axis(m)": 7083131.272910544,
        "Time(s)": 28
    },
    {
        "Altitude(m)": 707117.1814467241,
        "Argument of Periapsis(deg)": 0.001738492181116763,
        "Eccentricity": 0.0,
        "Inclination(deg)": 45.0,
        "Latitude(deg)": 44.29796673224952,
        "Longitude(deg)": -96.15260638187803,
        "Mean Anomaly(deg)": 99.94213306724707,
        "RAAN(deg)": 259.9983589141985,
        "Satellite Name": "Constellation 1 1150",
        "Satellite Number": 1150,
        "Semi-Major Axis(m)": 7083131.272910544,
        "Time(s)": 29
    },
    {
        "Altitude(m)": 707114.8483776218,
        "Argument of Periapsis(deg)": 0.0017984401873621684,
        "Eccentricity": 0.0,
        "Inclination(deg)": 45.0,
        "Latitude(deg)": 44.287573828305526,
        "Longitude(deg)": -96.07333183557407,
        "Mean Anomaly(deg)": -259.99716579250304,
        "RAAN(deg)": 259.9983023250329,
        "Satellite Name": "Constellation 1 1150",
        "Satellite Number": 1150,
        "Semi-Major Axis(m)": 7083131.272910544,
        "Time(s)": 30
    },
    {
        "Altitude(m)": 707112.5018155935,
        "Argument of Periapsis(deg)": 0.0018583881936075745,
        "Eccentricity": 0.0,
        "Inclination(deg)": 45.0,
        "Latitude(deg)": 44.27712008603339,
        "Longitude(deg)": -95.99408658689208,
        "Mean Anomaly(deg)": -259.9364646522531,
        "RAAN(deg)": 259.9982457358674,
        "Satellite Name": "Constellation 1 1150",
        "Satellite Number": 1150,
        "Semi-Major Axis(m)": 7083131.272910544,
        "Time(s)": 31
    },
    {
        "Altitude(m)": 707110.1417744651,
        "Argument of Periapsis(deg)": 0.0019183361998529795,
        "Eccentricity": 0.0,
        "Inclination(deg)": 45.0,
        "Latitude(deg)": 44.266605548772894,
        "Longitude(deg)": -95.91487095449693,
        "Mean Anomaly(deg)": -259.87576351200323,
        "RAAN(deg)": 259.9981891467018,
        "Satellite Name": "Constellation 1 1150",
        "Satellite Number": 1150,
        "Semi-Major Axis(m)": 7083131.272910544,
        "Time(s)": 32
    },
    {
        "Altitude(m)": 707107.7682681403,
        "Argument of Periapsis(deg)": 0.0019782842060983856,
        "Eccentricity": 0.0,
        "Inclination(deg)": 45.0,
        "Latitude(deg)": 44.25603026007687,
        "Longitude(deg)": -95.83568508848099,
        "Mean Anomaly(deg)": -259.81506237175336,
        "RAAN(deg)": 259.9981325575362,
        "Satellite Name": "Constellation 1 1150",
        "Satellite Number": 1150,
        "Semi-Major Axis(m)": 7083131.272910544,
        "Time(s)": 33
    },
    {
        "Altitude(m)": 707105.381310599,
        "Argument of Periapsis(deg)": 0.0020382322123437906,
        "Eccentricity": 0.0,
        "Inclination(deg)": 45.0,
        "Latitude(deg)": 44.24539426371018,
        "Longitude(deg)": -95.75652913845865,
        "Mean Anomaly(deg)": -259.7543612315035,
        "RAAN(deg)": 259.99807596837064,
        "Satellite Name": "Constellation 1 1150",
        "Satellite Number": 1150,
        "Semi-Major Axis(m)": 7083131.272910544,
        "Time(s)": 34
    },
    {
        "Altitude(m)": 707102.9809159093,
        "Argument of Periapsis(deg)": 0.002098180218589197,
        "Eccentricity": 0.0,
        "Inclination(deg)": 45.0,
        "Latitude(deg)": 44.234697603649174,
        "Longitude(deg)": -95.67740325356556,
        "Mean Anomaly(deg)": -259.6936600912535,
        "RAAN(deg)": 259.99801937920506,
        "Satellite Name": "Constellation 1 1150",
        "Satellite Number": 1150,
        "Semi-Major Axis(m)": 7083131.272910544,
        "Time(s)": 35
    },
    {
        "Altitude(m)": 707100.5670982131,
        "Argument of Periapsis(deg)": 0.002158128224834602,
        "Eccentricity": 0.0,
        "Inclination(deg)": 45.0,
        "Latitude(deg)": 44.22394032408071,
        "Longitude(deg)": -95.59830758245552,
        "Mean Anomaly(deg)": -259.6329589510036,
        "RAAN(deg)": 259.99796279003954,
        "Satellite Name": "Constellation 1 1150",
        "Satellite Number": 1150,
        "Semi-Major Axis(m)": 7083131.272910544,
        "Time(s)": 36
    },
    {
        "Altitude(m)": 707098.1398717357,
        "Argument of Periapsis(deg)": 0.002218076231080008,
        "Eccentricity": 0.0,
        "Inclination(deg)": 45.0,
        "Latitude(deg)": 44.2131224694014,
        "Longitude(deg)": -95.5192424413968,
        "Mean Anomaly(deg)": -259.57225781075374,
        "RAAN(deg)": 259.99790620087396,
        "Satellite Name": "Constellation 1 1150",
        "Satellite Number": 1150,
        "Semi-Major Axis(m)": 7083131.272910544,
        "Time(s)": 37
    }
]